NORAD_CAT_ID,OBJECT_NAME,OBJECT_TYPE,EPOCH,MEAN_MOTION,ECCENTRICITY,INCLINATION,RA_OF_ASC_NODE,ARG_OF_PERICENTER,MEAN_ANOMALY,BSTAR,MEAN_MOTION_DOT,MEAN_MOTION_DDOT,TLE_LINE0,TLE_LINE1,TLE_LINE2,SEMIMAJOR_AXIS,PERIOD,APOGEE,PERIGEE,DECAYED
52475.0,STARLINK-3882,PAYLOAD,2023-08-25 02:26:20,15.08835537,0.0001097,53.217,263.4473,89.6114,270.5004,3.7809e-05,3.14e-06,0.0,0 STARLINK-3882,1 52475U 22049AA  23237.10163194  .00000314  00000-0  37809-4 0  9991,2 52475  53.2170 263.4473 0001097  89.6114 270.5004 15.08835537 72370,6917.894,95.438,540.518,539.0,0.0
52475.0,STARLINK-3882,PAYLOAD,2023-08-25 07:12:30,15.08836083,0.0001099,53.2167,262.5551,87.8212,272.2906,3.674e-05,2.97e-06,0.0,0 STARLINK-3882,1 52475U 22049AA  23237.30035187  .00000297  00000-0  36740-4 0  9996,2 52475  53.2167 262.5551 0001099  87.8212 272.2906 15.08836083 72247,6917.892,95.438,540.518,538.997,0.0
52475.0,STARLINK-3882,PAYLOAD,2023-08-26 08:38:40,15.08840428,0.0001129,53.2166,257.7959,93.4232,266.6889,0.00010412,1.37e-05,0.0,0 STARLINK-3882,1 52475U 22049AA  23238.36018922  .00001370  00000-0  10412-3 0  9991,2 52475  53.2166 257.7959 0001129  93.4232 266.6889 15.08840428 72563,6917.879,95.438,540.525,538.963,0.0
52475.0,STARLINK-3882,PAYLOAD,2023-08-27 08:29:27,15.08840786,0.0001153,53.2163,253.3347,93.8765,266.2359,9.7468e-05,1.264e-05,0.0,0 STARLINK-3882,1 52475U 22049AA  23239.35379071  .00001264  00000-0  97468-4 0  9995,2 52475  53.2163 253.3347 0001153  93.8765 266.2359 15.08840786 72559,6917.878,95.438,540.541,538.945,0.0
52475.0,STARLINK-3882,PAYLOAD,2023-08-28 00:23:19,15.08839146,0.0001163,53.2165,250.3611,92.8527,267.2598,2.8059e-05,1.59e-06,0.0,0 STARLINK-3882,1 52475U 22049AA  23240.01619409  .00000159  00000-0  28059-4 0  9994,2 52475  53.2165 250.3611 0001163  92.8527 267.2598 15.08839146 72811,6917.883,95.438,540.553,538.943,0.0
52475.0,STARLINK-3882,PAYLOAD,2023-08-28 17:52:33,15.08840255,0.0001213,53.2166,247.0901,90.407,269.7061,4.7885e-05,4.74e-06,0.0,0 STARLINK-3882,1 52475U 22049AA  23240.74483290  .00000474  00000-0  47885-4 0  9999,2 52475  53.2166 247.0901 0001213  90.4070 269.7061 15.08840255 72769,6917.88,95.438,540.584,538.905,0.0
52475.0,STARLINK-3882,PAYLOAD,2023-08-29 06:35:38,15.08842711,0.0001201,53.2161,244.7108,92.8999,267.2131,6.6667e-05,7.73e-06,0.0,0 STARLINK-3882,1 52475U 22049AA  23241.27475051  .00000773  00000-0  66667-4 0  9995,2 52475  53.2161 244.7108 0001201  92.8999 267.2131 15.08842711 73008,6917.872,95.437,540.568,538.906,0.0
52475.0,STARLINK-3882,PAYLOAD,2023-08-30 00:04:53,15.08836826,0.0001184,53.2157,241.4401,91.2406,268.8722,3.5899e-05,2.83e-06,0.0,0 STARLINK-3882,1 52475U 22049AA  23242.00339615  .00000283  00000-0  35899-4 0  9991,2 52475  53.2157 241.4401 0001184  91.2406 268.8722 15.08836826 73114,6917.89,95.438,540.574,538.936,0.0
52475.0,STARLINK-3882,PAYLOAD,2023-08-30 17:34:07,15.08838772,0.0001285,53.2168,238.1693,90.1091,270.0049,4.6532e-05,4.53e-06,0.0,0 STARLINK-3882,1 52475U 22049AA  23242.73203597  .00000453  00000-0  46532-4 0  9995,2 52475  53.2168 238.1693 0001285  90.1091 270.0049 15.08838772 73065,6917.884,95.438,540.638,538.86,0.0
52475.0,STARLINK-3882,PAYLOAD,2023-08-31 09:27:58,15.0884548,0.0001397,53.2167,235.195,90.6721,269.4431,6.0418e-05,6.74e-06,0.0,0 STARLINK-3882,1 52475U 22049AA  23243.39443090  .00000674  00000-0  60418-4 0  9996,2 52475  53.2167 235.1950 0001397  90.6721 269.4431 15.08845480 73326,6917.864,95.437,540.695,538.762,0.0
52475.0,STARLINK-3882,PAYLOAD,2023-08-31 23:46:27,15.08833688,0.0001198,53.2163,232.5196,90.3183,269.7946,4.3926e-05,4.11e-06,0.0,0 STARLINK-3882,1 52475U 22049AA  23243.99059897  .00000411  00000-0  43926-4 0  9994,2 52475  53.2163 232.5196 0001198  90.3183 269.7946 15.08833688 73414,6917.9,95.438,540.593,538.936,0.0
52475.0,STARLINK-3882,PAYLOAD,2023-09-01 09:18:46,15.08837607,0.0001236,53.2161,230.7352,89.3193,270.794,4.0255e-05,3.53e-06,0.0,0 STARLINK-3882,1 52475U 22049AA  23244.38803827  .00000353  00000-0  40255-4 0  9995,2 52475  53.2161 230.7352 0001236  89.3193 270.7940 15.08837607 73318,6917.888,95.438,540.608,538.898,0.0
52475.0,STARLINK-3882,PAYLOAD,2023-09-01 15:40:19,15.08838564,0.000125,53.216,229.546,89.2132,270.9003,3.8025e-05,3.17e-06,0.0,0 STARLINK-3882,1 52475U 22049AA  23244.65299811  .00000317  00000-0  38025-4 0  9999,2 52475  53.2160 229.5460 0001250  89.2132 270.9003 15.08838564 73350,6917.885,95.438,540.615,538.885,0.0
52475.0,STARLINK-3882,PAYLOAD,2023-09-02 07:34:09,15.08869585,0.0001188,53.2158,226.5723,88.7027,271.4101,-0.00025483,-4.345e-05,0.0,0 STARLINK-3882,1 52475U 22049AA  23245.31538469 -.00004345  00000-0 -25483-3 0  9998,2 52475  53.2158 226.5723 0001188  88.7027 271.4101 15.08869585 73614,6917.79,95.436,540.477,538.833,0.0
52475.0,STARLINK-3882,PAYLOAD,2023-09-02 23:28:01,15.08836287,0.0001403,53.2166,223.5997,96.8205,263.2946,5.9566e-05,6.6e-06,0.0,0 STARLINK-3882,1 52475U 22049AA  23245.97779975  .00000660  00000-0  59566-4 0  9993,2 52475  53.2166 223.5997 0001403  96.8205 263.2946 15.08836287 73711,6917.892,95.438,540.727,538.786,0.0
52475.0,STARLINK-3882,PAYLOAD,2023-09-03 07:24:57,15.08838222,0.0001299,53.2159,222.1119,93.0985,267.0155,6.8285e-05,7.99e-06,0.0,0 STARLINK-3882,1 52475U 22049AA  23246.30899922  .00000799  00000-0  68285-4 0  9997,2 52475  53.2159 222.1119 0001299  93.0985 267.0155 15.08838222 73604,6917.886,95.438,540.649,538.852,0.0
52475.0,STARLINK-3882,PAYLOAD,2023-09-04 07:15:45,15.0883301,0.000159,53.2164,217.6514,86.3534,273.764,-4.9038e-05,-1.068e-05,0.0,0 STARLINK-3882,1 52475U 22049AA  23247.30261033 -.00001068  00000-0 -49038-4 0  9991,2 52475  53.2164 217.6514 0001590  86.3534 273.7640 15.08833010 73914,6917.902,95.438,540.867,538.667,0.0
52475.0,STARLINK-3882,PAYLOAD,2023-09-05 03:55:45,15.08843974,0.0001443,53.217,213.7862,84.3481,275.7676,9.7341e-05,1.262e-05,0.0,0 STARLINK-3882,1 52475U 22049AA  23248.16372043  .00001262  00000-0  97341-4 0  9994,2 52475  53.2170 213.7862 0001443  84.3481 275.7676 15.08843974 74046,6917.868,95.437,540.731,538.735,0.0
52475.0,STARLINK-3882,PAYLOAD,2023-09-05 07:06:31,15.08845307,0.0001451,53.2169,213.1912,84.1546,275.9612,0.00010507,1.385e-05,0.0,0 STARLINK-3882,1 52475U 22049AA  23248.29619920  .00001385  00000-0  10507-3 0  9990,2 52475  53.2169 213.1912 0001451  84.1546 275.9612 15.08845307 73901,6917.864,95.437,540.733,538.725,0.0
52475.0,STARLINK-3882,PAYLOAD,2023-09-06 06:57:18,15.08840551,0.0001463,53.2172,208.7295,83.1487,276.9672,0.00010545,1.391e-05,0.0,0 STARLINK-3882,1 52475U 22049AA  23249.28980323  .00001391  00000-0  10545-3 0  9997,2 52475  53.2172 208.7295 0001463  83.1487 276.9672 15.08840551 74213,6917.879,95.438,540.756,538.732,0.0
52475.0,STARLINK-3882,PAYLOAD,2023-09-07 06:48:06,15.08843408,0.00015,53.217,204.2691,87.726,272.3904,-2.2563e-06,-3.24e-06,0.0,0 STARLINK-3882,1 52475U 22049AA  23250.28340384 -.00000324  00000-0 -22563-5 0  9998,2 52475  53.2170 204.2691 0001500  87.7260 272.3904 15.08843408 74204,6917.87,95.437,540.773,538.697,0.0
52475.0,STARLINK-3882,PAYLOAD,2023-09-08 03:28:06,15.08841443,0.0001332,53.2167,200.4016,92.6912,267.4233,8.0664e-05,9.96e-06,0.0,0 STARLINK-3882,1 52475U 22049AA  23251.14452113  .00000996  00000-0  80664-4 0  9996,2 52475  53.2167 200.4016 0001332  92.6912 267.4233 15.08841443 74499,6917.876,95.437,540.662,538.82,0.0
52475.0,STARLINK-3882,PAYLOAD,2023-09-08 05:03:29,15.08842763,0.0001376,53.2174,200.1043,93.0738,267.0412,9.2139e-05,1.179e-05,0.0,0 STARLINK-3882,1 52475U 22049AA  23251.21076001  .00001179  00000-0  92139-4 0  9996,2 52475  53.2174 200.1043 0001376  93.0738 267.0412 15.08842763 74348,6917.872,95.437,540.689,538.785,0.0
52475.0,STARLINK-3882,PAYLOAD,2023-09-09 01:43:30,15.08838624,0.0001462,53.2184,196.2403,105.7127,254.4026,4.0035e-05,3.49e-06,0.0,0 STARLINK-3882,1 52475U 22049AA  23252.07188523  .00000349  00000-0  40035-4 0  9990,2 52475  53.2184 196.2403 0001462 105.7127 254.4026 15.08838624 74637,6917.885,95.438,540.761,538.738,0.0
52475.0,STARLINK-3882,PAYLOAD,2023-09-09 12:51:12,15.08839428,0.0001325,53.2174,194.1599,90.5773,269.5371,4.5571e-05,4.37e-06,0.0,0 STARLINK-3882,1 52475U 22049AA  23252.53556558  .00000437  00000-0  45571-4 0  9996,2 52475  53.2174 194.1599 0001325  90.5773 269.5371 15.08839428 74548,6917.882,95.438,540.664,538.831,0.0
52475.0,STARLINK-3882,PAYLOAD,2023-09-10 06:20:27,15.08839258,0.0001338,53.2185,190.8887,97.6984,262.4161,1.3371e-05,-7.5e-07,0.0,0 STARLINK-3882,1 52475U 22049AA  23253.26420676 -.00000075  00000-0  13371-4 0  9990,2 52475  53.2185 190.8887 0001338  97.6984 262.4161 15.08839258 74819,6917.883,95.438,540.673,538.822,0.0
52475.0,STARLINK-3882,PAYLOAD,2023-09-11 12:32:47,15.08838319,0.0001384,53.218,185.2399,89.0038,271.1113,4.868e-05,4.87e-06,0.0,0 STARLINK-3882,1 52475U 22049AA  23254.52277382  .00000487  00000-0  48680-4 0  9991,2 52475  53.2180 185.2399 0001384  89.0038 271.1113 15.08838319 74840,6917.886,95.438,540.708,538.793,0.0
52475.0,STARLINK-3882,PAYLOAD,2023-09-12 02:51:15,15.08848659,0.000121,53.2175,182.5632,88.5365,271.5766,0.00012414,1.689e-05,0.0,0 STARLINK-3882,1 52475U 22049AA  23255.11892479  .00001689  00000-0  12414-3 0  9997,2 52475  53.2175 182.5632 0001210  88.5365 271.5766 15.08848659 75093,6917.854,95.437,540.556,538.882,0.0
52475.0,STARLINK-3882,PAYLOAD,2023-09-12 06:02:01,15.08852247,0.0001156,53.2167,181.9677,86.1345,273.9779,0.00013608,1.879e-05,0.0,0 STARLINK-3882,1 52475U 22049AA  23255.25140201  .00001879  00000-0  13608-3 0  9998,2 52475  53.2167 181.9677 0001156  86.1345 273.9779 15.08852247 74959,6917.843,95.437,540.508,538.908,0.0
52475.0,STARLINK-3882,PAYLOAD,2023-09-13 02:42:02,15.08853264,0.0001262,53.2173,178.1027,80.0925,280.0209,0.00017549,2.507e-05,0.0,0 STARLINK-3882,1 52475U 22049AA  23256.11252332  .00002507  00000-0  17549-3 0  9990,2 52475  53.2173 178.1027 0001262  80.0925 280.0209 15.08853264 75080,6917.84,95.437,540.578,538.832,0.0
